{
  "type": "FeatureCollection",
  "features": [
    {
      "type": "Feature",
      "properties": {
        "norad_id": 44204,
        "name": "BEIDOU-3 IGSO-1 (C38)",
        "group": "gnss",
        "lat": 29.32742046903684,
        "lon": 59.74980344226869,
        "alt_km": 35904.318013698525,
        "timestamp": "2025-12-16T15:45:51.289019+00:00",
        "meta_object_name": "BEIDOU-3 IGSO-1 (C38)",
        "meta_object_id": "2019-023A",
        "meta_epoch": "2025-11-19T14:15:02.708640",
        "meta_mean_motion": 1.00252177,
        "meta_eccentricity": 0.0026966,
        "meta_inclination": 58.4003,
        "meta_ra_of_asc_node": 39.8168,
        "meta_arg_of_pericenter": 221.2202,
        "meta_mean_anomaly": 126.9723,
        "meta_ephemeris_type": 0,
        "meta_classification_type": "U",
        "meta_norad_cat_id": 44204,
        "meta_element_set_no": 999,
        "meta_rev_at_epoch": 510,
        "meta_bstar": 0,
        "meta_mean_motion_dot": -2.26e-06,
        "meta_mean_motion_ddot": 0,
        "tle_line1": "1 44204U 19023A   25323.59378135 -.00000226  00000+0  00000+0 0  9994",
        "tle_line2": "2 44204  58.4003  39.8168 0026966 221.2202 126.9723  1.00252177  5102"
      },
      "geometry": {
        "type": "Point",
        "coordinates": [
          59.74980344226869,
          29.32742046903684
        ]
      }
    },
    {
      "type": "Feature",
      "properties": {
        "norad_id": 44231,
        "name": "BEIDOU-2 G8 (C01)",
        "group": "gnss",
        "lat": 0.9012252640846904,
        "lon": 106.49853843496072,
        "alt_km": 35812.747592096915,
        "timestamp": "2025-12-16T15:45:51.289042+00:00",
        "meta_object_name": "BEIDOU-2 G8 (C01)",
        "meta_object_id": "2019-027A",
        "meta_epoch": "2025-12-15T22:37:58.102176",
        "meta_mean_motion": 1.00267349,
        "meta_eccentricity": 0.00087641,
        "meta_inclination": 1.6701,
        "meta_ra_of_asc_node": 74.7184,
        "meta_arg_of_pericenter": 258.0815,
        "meta_mean_anomaly": 235.9838,
        "meta_ephemeris_type": 0,
        "meta_classification_type": "U",
        "meta_norad_cat_id": 44231,
        "meta_element_set_no": 999,
        "meta_rev_at_epoch": 2424,
        "meta_bstar": 0,
        "meta_mean_motion_dot": -2.27e-06,
        "meta_mean_motion_ddot": 0,
        "tle_line1": "1 44231U 19027A   25349.94303359 -.00000227  00000+0  00000+0 0  9992",
        "tle_line2": "2 44231   1.6701  74.7184 0008764 258.0815 235.9838  1.00267349 24248"
      },
      "geometry": {
        "type": "Point",
        "coordinates": [
          106.49853843496072,
          0.9012252640846904
        ]
      }
    },
    {
      "type": "Feature",
      "properties": {
        "norad_id": 44299,
        "name": "COSMOS 2534 (758)",
        "group": "gnss",
        "lat": 28.83779201797281,
        "lon": 3.4320099073706576,
        "alt_km": 19142.811778266845,
        "timestamp": "2025-12-16T15:45:51.289065+00:00",
        "meta_object_name": "COSMOS 2534 (758)",
        "meta_object_id": "2019-030A",
        "meta_epoch": "2025-12-15T05:49:22.027584",
        "meta_mean_motion": 2.13102219,
        "meta_eccentricity": 0.00088073,
        "meta_inclination": 64.3657,
        "meta_ra_of_asc_node": 198.8086,
        "meta_arg_of_pericenter": 283.8967,
        "meta_mean_anomaly": 218.9019,
        "meta_ephemeris_type": 0,
        "meta_classification_type": "U",
        "meta_norad_cat_id": 44299,
        "meta_element_set_no": 999,
        "meta_rev_at_epoch": 5100,
        "meta_bstar": 0,
        "meta_mean_motion_dot": 1.03e-06,
        "meta_mean_motion_ddot": 0,
        "tle_line1": "1 44299U 19030A   25349.24261606  .00000103  00000+0  00000+0 0  9993",
        "tle_line2": "2 44299  64.3657 198.8086 0008807 283.8967 218.9019  2.13102219 51004"
      },
      "geometry": {
        "type": "Point",
        "coordinates": [
          3.4320099073706576,
          28.83779201797281
        ]
      }
    },
    {
      "type": "Feature",
      "properties": {
        "norad_id": 44337,
        "name": "BEIDOU-3 IGSO-2 (C39)",
        "group": "gnss",
        "lat": -53.56098199592279,
        "lon": 89.97572088793139,
        "alt_km": 35762.24899893735,
        "timestamp": "2025-12-16T15:45:51.289086+00:00",
        "meta_object_name": "BEIDOU-3 IGSO-2 (C39)",
        "meta_object_id": "2019-035A",
        "meta_epoch": "2025-12-15T20:48:46.059264",
        "meta_mean_motion": 1.0027048,
        "meta_eccentricity": 0.00373444,
        "meta_inclination": 55.2266,
        "meta_ra_of_asc_node": 160.4736,
        "meta_arg_of_pericenter": 202.467,
        "meta_mean_anomaly": 153.4937,
        "meta_ephemeris_type": 0,
        "meta_classification_type": "U",
        "meta_norad_cat_id": 44337,
        "meta_element_set_no": 999,
        "meta_rev_at_epoch": 2382,
        "meta_bstar": 0,
        "meta_mean_motion_dot": -3.5e-07,
        "meta_mean_motion_ddot": 0,
        "tle_line1": "1 44337U 19035A   25349.86719976 -.00000035  00000+0  00000+0 0  9992",
        "tle_line2": "2 44337  55.2266 160.4736 0037344 202.4670 153.4937  1.00270480 23827"
      },
      "geometry": {
        "type": "Point",
        "coordinates": [
          89.97572088793139,
          -53.56098199592279
        ]
      }
    },
    {
      "type": "Feature",
      "properties": {
        "norad_id": 44506,
        "name": "GPS BIII-2  (PRN 18)",
        "group": "gnss",
        "lat": -9.007779016457125,
        "lon": -27.817829311263026,
        "alt_km": 20316.38093309182,
        "timestamp": "2025-12-16T15:45:51.289106+00:00",
        "meta_object_name": "GPS BIII-2  (PRN 18)",
        "meta_object_id": "2019-056A",
        "meta_epoch": "2025-12-15T09:56:28.644288",
        "meta_mean_motion": 2.00566523,
        "meta_eccentricity": 0.00577123,
        "meta_inclination": 55.7205,
        "meta_ra_of_asc_node": 338.4461,
        "meta_arg_of_pericenter": 198.4931,
        "meta_mean_anomaly": 333.0203,
        "meta_ephemeris_type": 0,
        "meta_classification_type": "U",
        "meta_norad_cat_id": 44506,
        "meta_element_set_no": 999,
        "meta_rev_at_epoch": 4638,
        "meta_bstar": 0,
        "meta_mean_motion_dot": -8.9e-07,
        "meta_mean_motion_ddot": 0,
        "tle_line1": "1 44506U 19056A   25349.41422042 -.00000089  00000+0  00000+0 0  9998",
        "tle_line2": "2 44506  55.7205 338.4461 0057712 198.4931 333.0203  2.00566523 46385"
      },
      "geometry": {
        "type": "Point",
        "coordinates": [
          -27.817829311263026,
          -9.007779016457125
        ]
      }
    },
    {
      "type": "Feature",
      "properties": {
        "norad_id": 44542,
        "name": "BEIDOU-3 M24 (C46)",
        "group": "gnss",
        "lat": -11.368886810418115,
        "lon": -179.394275780841,
        "alt_km": 21509.105713420315,
        "timestamp": "2025-12-16T15:45:51.289124+00:00",
        "meta_object_name": "BEIDOU-3 M24 (C46)",
        "meta_object_id": "2019-061A",
        "meta_epoch": "2025-12-15T01:36:18.331776",
        "meta_mean_motion": 1.86229339,
        "meta_eccentricity": 0.00095644,
        "meta_inclination": 54.4001,
        "meta_ra_of_asc_node": 188.9375,
        "meta_arg_of_pericenter": 24.7073,
        "meta_mean_anomaly": 335.4071,
        "meta_ephemeris_type": 0,
        "meta_classification_type": "U",
        "meta_norad_cat_id": 44542,
        "meta_element_set_no": 999,
        "meta_rev_at_epoch": 4236,
        "meta_bstar": 0,
        "meta_mean_motion_dot": 1.12e-06,
        "meta_mean_motion_ddot": 0,
        "tle_line1": "1 44542U 19061A   25349.06687884  .00000112  00000+0  00000+0 0  9998",
        "tle_line2": "2 44542  54.4001 188.9375 0009564  24.7073 335.4071  1.86229339 42364"
      },
      "geometry": {
        "type": "Point",
        "coordinates": [
          -179.394275780841,
          -11.368886810418115
        ]
      }
    },
    {
      "type": "Feature",
      "properties": {
        "norad_id": 44543,
        "name": "BEIDOU-3 M23 (C45)",
        "group": "gnss",
        "lat": -52.86107277295218,
        "lon": 79.99243759418556,
        "alt_km": 21543.90920856218,
        "timestamp": "2025-12-16T15:45:51.289141+00:00",
        "meta_object_name": "BEIDOU-3 M23 (C45)",
        "meta_object_id": "2019-061B",
        "meta_epoch": "2025-12-12T05:53:39.748416",
        "meta_mean_motion": 1.86227487,
        "meta_eccentricity": 0.00061471,
        "meta_inclination": 54.3988,
        "meta_ra_of_asc_node": 189.0008,
        "meta_arg_of_pericenter": 23.325,
        "meta_mean_anomaly": 158.0349,
        "meta_ephemeris_type": 0,
        "meta_classification_type": "U",
        "meta_norad_cat_id": 44543,
        "meta_element_set_no": 999,
        "meta_rev_at_epoch": 4231,
        "meta_bstar": 0,
        "meta_mean_motion_dot": 7.9e-07,
        "meta_mean_motion_ddot": 0,
        "tle_line1": "1 44543U 19061B   25346.24559894  .00000079  00000+0  00000+0 0  9997",
        "tle_line2": "2 44543  54.3988 189.0008 0006147  23.3250 158.0349  1.86227487 42313"
      },
      "geometry": {
        "type": "Point",
        "coordinates": [
          79.99243759418556,
          -52.86107277295218
        ]
      }
    }
  ]
}